      2.10          N: GNSS NAV DATA                        RINEX VERSION / TYPE
fic2rin                                 11/23/2021 00:17:31 PGM / RUN BY / DATE
                                                            END OF HEADER
18 21 11 22 18  0  0.0 2.915211953223e-04-6.025402399246e-12 0.000000000000e+00
    8.200000000000e+01-9.906250000000e+01 4.157316026042e-09 1.334883660131e+00
   -5.099922418594e-06 2.077043871395e-03 4.692003130913e-06 5.153643262863e+03
    1.512000000000e+05-1.490116119385e-08-3.987307865663e-01 2.607703208923e-08
    9.701891592442e-01 2.935625000000e+02 3.061916365244e+00-7.986046936624e-09
   -1.307197307158e-10 1.000000000000e+00 2.185000000000e+03 0.000000000000e+00
    2.400000000000e+00 0.000000000000e+00-8.381903171539e-09 3.380000000000e+02
    1.440000000000e+05 4.000000000000e+00
20 21 11 22 18  0  0.0 5.179927684367e-04-2.273736754432e-13 0.000000000000e+00
    1.760000000000e+02-7.793750000000e+01 4.658051169385e-09 2.250148930843e+00
   -4.058703780174e-06 5.476702353917e-03 9.618699550629e-06 5.153697715759e+03
    1.512000000000e+05-5.401670932770e-08 4.758358237634e-01 1.098960638046e-07
    9.407862028359e-01 1.805625000000e+02 3.038190086892e+00-7.972474942725e-09
    2.939408152434e-10 1.000000000000e+00 2.185000000000e+03 0.000000000000e+00
    2.400000000000e+00 0.000000000000e+00-8.381903171539e-09 1.760000000000e+02
    1.440000000000e+05 4.000000000000e+00
24 21 11 22 18  0  0.0 2.695224247873e-04 3.410605131648e-12 0.000000000000e+00
    1.820000000000e+02-6.031250000000e+00 5.394510417298e-09 1.444112042069e+00
   -2.365559339523e-07 1.202859391924e-02 7.702037692070e-06 5.153700521469e+03
    1.512000000000e+05-2.253800630569e-07 2.647444297802e+00 1.452863216400e-07
    9.347624562426e-01 2.200625000000e+02 7.816887839269e-01-8.402492854697e-09
   -5.268076579392e-10 1.000000000000e+00 2.185000000000e+03 0.000000000000e+00
    3.400000000000e+00 0.000000000000e+00 2.328306436539e-09 1.820000000000e+02
    1.440000000000e+05 4.000000000000e+00
23 21 11 22 18  0  0.0 2.998346462846e-05-4.320099833421e-12 0.000000000000e+00
    1.060000000000e+02-5.756250000000e+01 4.179459805563e-09 5.778558436382e-01
   -3.000721335411e-06 1.889526844025e-03 9.436160326004e-06 5.153692090988e+03
    1.512000000000e+05 3.352761268616e-08 6.002821115423e-01-1.862645149231e-09
    9.664612533791e-01 2.012500000000e+02 2.799874224720e+00-7.728893368003e-09
    3.775157250453e-10 1.000000000000e+00 2.185000000000e+03 0.000000000000e+00
    2.400000000000e+00 0.000000000000e+00-8.381903171539e-09 6.180000000000e+02
    1.440000000000e+05 4.000000000000e+00
14 21 11 22 18  0  0.0-4.289625212550e-05-6.707523425575e-12 0.000000000000e+00
    2.380000000000e+02 1.117187500000e+02 4.369110562421e-09-2.439135631332e-01
    5.593523383141e-06 1.199072576128e-03 9.177252650261e-06 5.153649477005e+03
    1.512000000000e+05 2.980232238770e-08-2.472853852289e+00-1.117587089539e-08
    9.550893796492e-01 2.015625000000e+02 3.100658899346e+00-7.898900449481e-09
   -2.239378993409e-10 1.000000000000e+00 2.185000000000e+03 0.000000000000e+00
    2.400000000000e+00 0.000000000000e+00-7.916241884232e-09 1.006000000000e+03
    1.440000000000e+05 4.000000000000e+00
 7 21 11 22 17 59 44.0 2.815895713866e-04 5.115907697473e-12 0.000000000000e+00
    7.500000000000e+01 2.218750000000e+00 4.972707133212e-09 4.670107880053e-01
    2.961605787277e-07 1.533105119597e-02 7.893890142441e-06 5.153716804504e+03
    1.511840000000e+05-1.043081283569e-07 2.728709723336e+00 1.639127731323e-07
    9.513769470686e-01 2.234062500000e+02-2.301010164207e+00-8.270701650779e-09
   -6.185971956276e-10 1.000000000000e+00 2.185000000000e+03 0.000000000000e+00
    2.400000000000e+00 0.000000000000e+00-1.117587089539e-08 7.500000000000e+01
    1.489500000000e+05 4.000000000000e+00
20 21 11 22 17 59 44.0 5.179923027754e-04-2.273736754432e-13 0.000000000000e+00
    6.000000000000e+00-7.793750000000e+01 4.658051169385e-09 2.247815308793e+00
   -4.058703780174e-06 5.476698977873e-03 9.618699550629e-06 5.153697710037e+03
    1.511840000000e+05-5.401670932770e-08 4.758359495744e-01 1.098960638046e-07
    9.407861911325e-01 1.805625000000e+02 3.038190054708e+00-7.972474942725e-09
    2.942979729776e-10 1.000000000000e+00 2.185000000000e+03 0.000000000000e+00
    2.400000000000e+00 0.000000000000e+00-8.381903171539e-09 6.000000000000e+00
    1.490100000000e+05 4.000000000000e+00
24 21 11 22 17 59 44.0 2.695247530937e-04 3.410605131648e-12 0.000000000000e+00
    1.000000000000e+00-6.031250000000e+00 5.394510417298e-09 1.441777422308e+00
   -2.365559339523e-07 1.202858739998e-02 7.702037692070e-06 5.153700515747e+03
    1.511840000000e+05-2.253800630569e-07 2.647444436779e+00 1.452863216400e-07
    9.347624679460e-01 2.200625000000e+02 7.816897523787e-01-8.402492854697e-09
   -5.268076579392e-10 1.000000000000e+00 2.185000000000e+03 0.000000000000e+00
    2.400000000000e+00 0.000000000000e+00 2.328306436539e-09 1.000000000000e+00
    1.492800000000e+05 4.000000000000e+00
 7 21 11 22 19 59 44.0 2.816263586283e-04 5.115907697473e-12 0.000000000000e+00
    7.600000000000e+01-1.625000000000e+00 4.965921136262e-09 1.517122283787e+00
   -5.960464477539e-08 1.533141045365e-02 8.355826139450e-06 5.153718311310e+03
    1.583840000000e+05-3.427267074585e-07 2.728649704196e+00 9.685754776001e-08
    9.513728479721e-01 2.193125000000e+02-2.300963747279e+00-8.171768958406e-09
   -5.110927176346e-10 1.000000000000e+00 2.185000000000e+03 0.000000000000e+00
    2.400000000000e+00 0.000000000000e+00-1.117587089539e-08 7.600000000000e+01
    1.512000000000e+05 4.000000000000e+00
20 21 11 22 19 59 44.0 5.179909057915e-04-2.273736754432e-13 0.000000000000e+00
    7.000000000000e+00-8.853125000000e+01 4.548403744987e-09-2.985366654676e+00
   -4.457309842110e-06 5.476062186062e-03 9.819865226746e-06 5.153699424744e+03
    1.583840000000e+05-8.009374141693e-08 4.757785768532e-01 0.000000000000e+00
    9.407888390142e-01 1.771562500000e+02 3.038352359617e+00-7.888185717455e-09
    3.403713206889e-10 1.000000000000e+00 2.185000000000e+03 0.000000000000e+00
    2.400000000000e+00 0.000000000000e+00-8.381903171539e-09 7.000000000000e+00
    1.512000000000e+05 4.000000000000e+00
24 21 11 22 19 59 44.0 2.695494331419e-04 3.410605131648e-12 0.000000000000e+00
    1.600000000000e+01-5.093750000000e+00 5.247718588543e-09 2.491970712766e+00
   -3.837049007416e-07 1.202878204640e-02 7.648020982742e-06 5.153699893951e+03
    1.583840000000e+05-7.823109626770e-08 2.647384319623e+00-2.328306436539e-07
    9.347607314622e-01 2.177812500000e+02 7.816674267859e-01-8.033191757538e-09
   -3.993023468312e-10 1.000000000000e+00 2.185000000000e+03 0.000000000000e+00
    2.400000000000e+00 0.000000000000e+00 2.328306436539e-09 1.600000000000e+01
    1.512000000000e+05 4.000000000000e+00
 1 21 11 22 20  0  0.0 5.036196671426e-04-1.034550223267e-11 0.000000000000e+00
    1.100000000000e+01-1.057500000000e+02 3.761228098819e-09 2.163245398551e+00
   -5.573034286499e-06 1.111808489077e-02 4.788860678673e-06 5.153676441193e+03
    1.584000000000e+05-1.266598701477e-07-4.078544872908e-01-2.421438694000e-07
    9.864187299909e-01 3.018750000000e+02 8.857859412028e-01-7.766394930094e-09
   -1.225051028293e-10 1.000000000000e+00 2.185000000000e+03 0.000000000000e+00
    2.400000000000e+00 0.000000000000e+00 5.122274160385e-09 1.100000000000e+01
    1.512000000000e+05 4.000000000000e+00
 2 21 11 22 20  0  0.0-6.430447101593e-04-1.477928890381e-12 0.000000000000e+00
    3.500000000000e+01-1.106250000000e+02 4.172673808613e-09 2.361789468663e+00
   -5.675479769707e-06 2.053080743644e-02 2.795830368996e-06 5.153804626465e+03
    1.584000000000e+05 2.458691596985e-07-4.953332872482e-01-2.793967723846e-08
    9.647984831351e-01 3.234375000000e+02-1.478147270058e+00-7.778538293057e-09
   -2.414386283166e-10 1.000000000000e+00 2.185000000000e+03 0.000000000000e+00
    2.400000000000e+00 0.000000000000e+00-1.769512891769e-08 3.500000000000e+01
    1.512000000000e+05 4.000000000000e+00
 3 21 11 22 20  0  0.0-2.036709338427e-05-1.011812855722e-11 0.000000000000e+00
    3.200000000000e+01-5.812500000000e+01 4.015881563301e-09 9.901115155817e-01
   -3.192573785782e-06 3.882493241690e-03 9.821727871895e-06 5.153733741760e+03
    1.584000000000e+05-4.842877388000e-08 6.274576420493e-01-1.117587089539e-08
    9.715660577404e-01 1.941250000000e+02 1.000309216151e+00-7.686034439900e-09
    3.628722579432e-10 1.000000000000e+00 2.185000000000e+03 0.000000000000e+00
    2.400000000000e+00 0.000000000000e+00 1.862645149231e-09 3.200000000000e+01
    1.512000000000e+05 4.000000000000e+00
 8 21 11 22 20  0  0.0-4.521943628788e-05-1.477928890381e-12 0.000000000000e+00
    4.400000000000e+01 5.565625000000e+01 4.456257049565e-09-1.787000324102e+00
    2.928078174591e-06 6.790440878831e-03 1.782551407814e-06 5.153681381226e+03
    1.584000000000e+05-2.980232238770e-08-1.486176893850e+00-3.911554813385e-08
    9.653975012752e-01 3.503437500000e+02 5.531529518979e-02-8.196412842066e-09
    1.360770967287e-10 1.000000000000e+00 2.185000000000e+03 0.000000000000e+00
    2.400000000000e+00 0.000000000000e+00 5.122274160385e-09 4.400000000000e+01
    1.512000000000e+05 4.000000000000e+00
 6 21 11 22 20  0  0.0 1.243315637112e-04 9.436007530894e-12 0.000000000000e+00
    5.000000000000e+01-1.139687500000e+02 3.805515657859e-09 2.560003546880e+00
   -5.759298801422e-06 2.418021904305e-03 4.338100552559e-06 5.153622690201e+03
    1.584000000000e+05-1.676380634308e-08-4.161099505240e-01 2.793967723846e-08
    9.858172131868e-01 3.089062500000e+02-1.039965383555e+00-7.826754587173e-09
   -1.753644474903e-10 1.000000000000e+00 2.185000000000e+03 0.000000000000e+00
    2.400000000000e+00 0.000000000000e+00 4.190951585770e-09 5.000000000000e+01
    1.512000000000e+05 4.000000000000e+00
